[{"OBJECT_NAME":"OCO 2","OBJECT_ID":"2014-035A","EPOCH":"2026-04-05T20:18:34.625376","MEAN_MOTION":14.57129025,"ECCENTRICITY":0.0001578,"INCLINATION":98.1967,"RA_OF_ASC_NODE":38.2634,"ARG_OF_PERICENTER":89.4095,"MEAN_ANOMALY":270.7285,"EPHEMERIS_TYPE":0,"CLASSIFICATION_TYPE":"U","NORAD_CAT_ID":40059,"ELEMENT_SET_NO":999,"REV_AT_EPOCH":62551,"BSTAR":0.00017405,"MEAN_MOTION_DOT":7.39e-6,"MEAN_MOTION_DDOT":0},{"OBJECT_NAME":"BRITE-PL2 (HEWELIUSZ)","OBJECT_ID":"2014-049B","EPOCH":"2026-04-05T20:39:17.841888","MEAN_MOTION":14.9433274,"ECCENTRICITY":0.0013735,"INCLINATION":97.9007,"RA_OF_ASC_NODE":207.353,"ARG_OF_PERICENTER":356.22,"MEAN_ANOMALY":3.8914,"EPHEMERIS_TYPE":0,"CLASSIFICATION_TYPE":"U","NORAD_CAT_ID":40119,"ELEMENT_SET_NO":999,"REV_AT_EPOCH":63064,"BSTAR":0.00032759,"MEAN_MOTION_DOT":3.469e-5,"MEAN_MOTION_DDOT":0},{"OBJECT_NAME":"MMS 1","OBJECT_ID":"2015-011A","EPOCH":"2026-04-05T22:00:03.000096","MEAN_MOTION":0.28348648,"ECCENTRICITY":0.8382986,"INCLINATION":71.1425,"RA_OF_ASC_NODE":349.8001,"ARG_OF_PERICENTER":165.8517,"MEAN_ANOMALY":126.5807,"EPHEMERIS_TYPE":0,"CLASSIFICATION_TYPE":"U","NORAD_CAT_ID":40482,"ELEMENT_SET_NO":999,"REV_AT_EPOCH":130,"BSTAR":0,"MEAN_MOTION_DOT":-1.3e-5,"MEAN_MOTION_DDOT":0},{"OBJECT_NAME":"MMS 2","OBJECT_ID":"2015-011B","EPOCH":"2026-04-05T22:00:03.000096","MEAN_MOTION":0.28348667,"ECCENTRICITY":0.8383734,"INCLINATION":71.1427,"RA_OF_ASC_NODE":349.8022,"ARG_OF_PERICENTER":165.8577,"MEAN_ANOMALY":126.5656,"EPHEMERIS_TYPE":0,"CLASSIFICATION_TYPE":"U","NORAD_CAT_ID":40483,"ELEMENT_SET_NO":999,"REV_AT_EPOCH":130,"BSTAR":0,"MEAN_MOTION_DOT":-1.3e-5,"MEAN_MOTION_DDOT":0},{"OBJECT_NAME":"MMS 3","OBJECT_ID":"2015-011C","EPOCH":"2026-04-05T22:00:03.000096","MEAN_MOTION":0.28348624,"ECCENTRICITY":0.8382987,"INCLINATION":71.1453,"RA_OF_ASC_NODE":349.8068,"ARG_OF_PERICENTER":165.852,"MEAN_ANOMALY":126.5702,"EPHEMERIS_TYPE":0,"CLASSIFICATION_TYPE":"U","NORAD_CAT_ID":40484,"ELEMENT_SET_NO":999,"REV_AT_EPOCH":130,"BSTAR":0,"MEAN_MOTION_DOT":-1.3e-5,"MEAN_MOTION_DDOT":0},{"OBJECT_NAME":"MMS 4","OBJECT_ID":"2015-011D","EPOCH":"2026-04-05T22:00:03.000096","MEAN_MOTION":0.28348687,"ECCENTRICITY":0.8382486,"INCLINATION":71.1417,"RA_OF_ASC_NODE":349.8025,"ARG_OF_PERICENTER":165.8588,"MEAN_ANOMALY":126.56,"EPHEMERIS_TYPE":0,"CLASSIFICATION_TYPE":"U","NORAD_CAT_ID":40485,"ELEMENT_SET_NO":999,"REV_AT_EPOCH":130,"BSTAR":0,"MEAN_MOTION_DOT":-1.3e-5,"MEAN_MOTION_DDOT":0},{"OBJECT_NAME":"ASTROSAT","OBJECT_ID":"2015-052A","EPOCH":"2026-04-04T10:10:08.226912","MEAN_MOTION":14.82373506,"ECCENTRICITY":0.00075048,"INCLINATION":5.9978,"RA_OF_ASC_NODE":326.2599,"ARG_OF_PERICENTER":58.6972,"MEAN_ANOMALY":301.389,"EPHEMERIS_TYPE":0,"CLASSIFICATION_TYPE":"U","NORAD_CAT_ID":40930,"ELEMENT_SET_NO":999,"REV_AT_EPOCH":56886,"BSTAR":0.00023869134,"MEAN_MOTION_DOT":2.628e-5,"MEAN_MOTION_DDOT":0},{"OBJECT_NAME":"DAMPE","OBJECT_ID":"2015-078A","EPOCH":"2026-04-05T20:48:20.553984","MEAN_MOTION":15.30602895,"ECCENTRICITY":0.0011464,"INCLINATION":97.4581,"RA_OF_ASC_NODE":100.9831,"ARG_OF_PERICENTER":341.2136,"MEAN_ANOMALY":18.868,"EPHEMERIS_TYPE":0,"CLASSIFICATION_TYPE":"U","NORAD_CAT_ID":41173,"ELEMENT_SET_NO":999,"REV_AT_EPOCH":57348,"BSTAR":6.1219e-5,"MEAN_MOTION_DOT":1.735e-5,"MEAN_MOTION_DDOT":0},{"OBJECT_NAME":"PISAT","OBJECT_ID":"2016-059B","EPOCH":"2026-04-05T17:37:04.524960","MEAN_MOTION":14.68848584,"ECCENTRICITY":0.0030563,"INCLINATION":97.8194,"RA_OF_ASC_NODE":99.3062,"ARG_OF_PERICENTER":77.74,"MEAN_ANOMALY":282.7226,"EPHEMERIS_TYPE":0,"CLASSIFICATION_TYPE":"U","NORAD_CAT_ID":41784,"ELEMENT_SET_NO":999,"REV_AT_EPOCH":50910,"BSTAR":0.00029474,"MEAN_MOTION_DOT":1.687e-5,"MEAN_MOTION_DDOT":0},{"OBJECT_NAME":"HXMT (HUIYAN)","OBJECT_ID":"2017-034A","EPOCH":"2026-04-05T19:51:57.381408","MEAN_MOTION":15.17841228,"ECCENTRICITY":0.0030731,"INCLINATION":43.014,"RA_OF_ASC_NODE":225.7544,"ARG_OF_PERICENTER":44.6178,"MEAN_ANOMALY":315.7137,"EPHEMERIS_TYPE":0,"CLASSIFICATION_TYPE":"U","NORAD_CAT_ID":42758,"ELEMENT_SET_NO":999,"REV_AT_EPOCH":48666,"BSTAR":0.00043004,"MEAN_MOTION_DOT":8.738e-5,"MEAN_MOTION_DDOT":0},{"OBJECT_NAME":"FLYING LAPTOP","OBJECT_ID":"2017-042G","EPOCH":"2026-04-05T20:24:58.828032","MEAN_MOTION":15.00714581,"ECCENTRICITY":0.0019681,"INCLINATION":97.4368,"RA_OF_ASC_NODE":254.334,"ARG_OF_PERICENTER":11.0406,"MEAN_ANOMALY":349.1247,"EPHEMERIS_TYPE":0,"CLASSIFICATION_TYPE":"U","NORAD_CAT_ID":42831,"ELEMENT_SET_NO":999,"REV_AT_EPOCH":47560,"BSTAR":0.00046658,"MEAN_MOTION_DOT":5.879e-5,"MEAN_MOTION_DDOT":0},{"OBJECT_NAME":"ZHANGHENG 1-01 (CSES-1)","OBJECT_ID":"2018-015C","EPOCH":"2026-04-05T19:54:52.157376","MEAN_MOTION":15.20983814,"ECCENTRICITY":0.0018743,"INCLINATION":97.6804,"RA_OF_ASC_NODE":260.0727,"ARG_OF_PERICENTER":144.0913,"MEAN_ANOMALY":216.1585,"EPHEMERIS_TYPE":0,"CLASSIFICATION_TYPE":"U","NORAD_CAT_ID":43194,"ELEMENT_SET_NO":999,"REV_AT_EPOCH":45364,"BSTAR":0.00053233,"MEAN_MOTION_DOT":0.0001179,"MEAN_MOTION_DDOT":0},{"OBJECT_NAME":"SALSAT","OBJECT_ID":"2020-068K","EPOCH":"2026-04-05T13:55:30.104256","MEAN_MOTION":15.28738181,"ECCENTRICITY":0.0009619,"INCLINATION":97.8868,"RA_OF_ASC_NODE":94.287,"ARG_OF_PERICENTER":186.5581,"MEAN_ANOMALY":173.5533,"EPHEMERIS_TYPE":0,"CLASSIFICATION_TYPE":"U","NORAD_CAT_ID":46495,"ELEMENT_SET_NO":999,"REV_AT_EPOCH":30426,"BSTAR":0.00035593,"MEAN_MOTION_DOT":9.877e-5,"MEAN_MOTION_DDOT":0},{"OBJECT_NAME":"IXPE","OBJECT_ID":"2021-121A","EPOCH":"2026-04-05T20:00:03.000384","MEAN_MOTION":15.095864,"ECCENTRICITY":0.0006885,"INCLINATION":0.2296,"RA_OF_ASC_NODE":144.2788,"ARG_OF_PERICENTER":64.3654,"MEAN_ANOMALY":66.2976,"EPHEMERIS_TYPE":0,"CLASSIFICATION_TYPE":"U","NORAD_CAT_ID":49954,"ELEMENT_SET_NO":999,"REV_AT_EPOCH":582,"BSTAR":0.00092805,"MEAN_MOTION_DOT":0.00016315,"MEAN_MOTION_DDOT":0}]
